[{"OBJECT_NAME":"STARLINK-5572","OBJECT_ID":"2023-013AZ","EPOCH":"2026-03-08T16:52:15.342240","MEAN_MOTION":15.0252414,"ECCENTRICITY":0.00012977,"INCLINATION":43.0037,"RA_OF_ASC_NODE":318.457,"ARG_OF_PERICENTER":264.7105,"MEAN_ANOMALY":95.3589,"EPHEMERIS_TYPE":0,"CLASSIFICATION_TYPE":"U","NORAD_CAT_ID":55378,"ELEMENT_SET_NO":999,"REV_AT_EPOCH":17141,"BSTAR":-7.4620962e-5,"MEAN_MOTION_DOT":-1.211e-5,"MEAN_MOTION_DDOT":0},{"OBJECT_NAME":"LEMUR-2-ALISIA","OBJECT_ID":"2025-009DB","EPOCH":"2026-03-09T17:42:17.671392","MEAN_MOTION":15.01147598,"ECCENTRICITY":0.00065821,"INCLINATION":97.7037,"RA_OF_ASC_NODE":151.6973,"ARG_OF_PERICENTER":159.9869,"MEAN_ANOMALY":200.1615,"EPHEMERIS_TYPE":0,"CLASSIFICATION_TYPE":"U","NORAD_CAT_ID":62706,"ELEMENT_SET_NO":999,"REV_AT_EPOCH":8523,"BSTAR":0.00072005311,"MEAN_MOTION_DOT":9.177e-5,"MEAN_MOTION_DDOT":0}]
